[{"OBJECT_NAME":"CUBESAT XI-V","OBJECT_ID":"2005-043F","EPOCH":"2026-04-26T16:37:53.441760","MEAN_MOTION":14.72492449,"ECCENTRICITY":0.00142252,"INCLINATION":98.2925,"RA_OF_ASC_NODE":271.2553,"ARG_OF_PERICENTER":14.3495,"MEAN_ANOMALY":345.8113,"EPHEMERIS_TYPE":0,"CLASSIFICATION_TYPE":"U","NORAD_CAT_ID":28895,"ELEMENT_SET_NO":999,"REV_AT_EPOCH":9417,"BSTAR":0.00025775623,"MEAN_MOTION_DOT":1.586e-5,"MEAN_MOTION_DDOT":0},{"OBJECT_NAME":"CLOUDSAT","OBJECT_ID":"2006-016A","EPOCH":"2026-04-26T22:03:07.385472","MEAN_MOTION":14.86286752,"ECCENTRICITY":0.00062921,"INCLINATION":98.3974,"RA_OF_ASC_NODE":151.36,"ARG_OF_PERICENTER":129.6735,"MEAN_ANOMALY":230.5035,"EPHEMERIS_TYPE":0,"CLASSIFICATION_TYPE":"U","NORAD_CAT_ID":29107,"ELEMENT_SET_NO":999,"REV_AT_EPOCH":6689,"BSTAR":0.00012594813,"MEAN_MOTION_DOT":1.048e-5,"MEAN_MOTION_DDOT":0},{"OBJECT_NAME":"CALIPSO","OBJECT_ID":"2006-016B","EPOCH":"2026-04-26T22:47:26.183904","MEAN_MOTION":14.69250868,"ECCENTRICITY":0.00018298,"INCLINATION":98.4498,"RA_OF_ASC_NODE":130.8654,"ARG_OF_PERICENTER":90.0416,"MEAN_ANOMALY":270.0998,"EPHEMERIS_TYPE":0,"CLASSIFICATION_TYPE":"U","NORAD_CAT_ID":29108,"ELEMENT_SET_NO":999,"REV_AT_EPOCH":6553,"BSTAR":0.00017467897,"MEAN_MOTION_DOT":9.77e-6,"MEAN_MOTION_DDOT":0},{"OBJECT_NAME":"HINODE (SOLAR-B)","OBJECT_ID":"2006-041A","EPOCH":"2026-04-26T22:46:26.197248","MEAN_MOTION":14.68546649,"ECCENTRICITY":0.00189639,"INCLINATION":98.0578,"RA_OF_ASC_NODE":133.8536,"ARG_OF_PERICENTER":90.9758,"MEAN_ANOMALY":269.362,"EPHEMERIS_TYPE":0,"CLASSIFICATION_TYPE":"U","NORAD_CAT_ID":29479,"ELEMENT_SET_NO":999,"REV_AT_EPOCH":4735,"BSTAR":0.00013641001,"MEAN_MOTION_DOT":7.44e-6,"MEAN_MOTION_DDOT":0},{"OBJECT_NAME":"METOP-A","OBJECT_ID":"2006-044A","EPOCH":"2026-04-26T22:44:18.210336","MEAN_MOTION":14.75731872,"ECCENTRICITY":0.01735494,"INCLINATION":98.328,"RA_OF_ASC_NODE":222.0649,"ARG_OF_PERICENTER":232.4765,"MEAN_ANOMALY":237.4165,"EPHEMERIS_TYPE":0,"CLASSIFICATION_TYPE":"U","NORAD_CAT_ID":29499,"ELEMENT_SET_NO":999,"REV_AT_EPOCH":1789,"BSTAR":0.00023006309,"MEAN_MOTION_DOT":1.944e-5,"MEAN_MOTION_DDOT":0},{"OBJECT_NAME":"SHIJIAN-6 02B (SJ-6 02B)","OBJECT_ID":"2006-046B","EPOCH":"2026-04-26T23:00:40.198176","MEAN_MOTION":15.01216672,"ECCENTRICITY":0.0010982,"INCLINATION":97.7143,"RA_OF_ASC_NODE":146.3397,"ARG_OF_PERICENTER":236.4722,"MEAN_ANOMALY":123.5454,"EPHEMERIS_TYPE":0,"CLASSIFICATION_TYPE":"U","NORAD_CAT_ID":29506,"ELEMENT_SET_NO":999,"REV_AT_EPOCH":6305,"BSTAR":0.00014269566,"MEAN_MOTION_DOT":1.773e-5,"MEAN_MOTION_DDOT":0},{"OBJECT_NAME":"DMSP 5D-3 F17 (USA 191)","OBJECT_ID":"2006-050A","EPOCH":"2026-04-26T23:23:15.681120","MEAN_MOTION":14.14982847,"ECCENTRICITY":0.00096915,"INCLINATION":98.7395,"RA_OF_ASC_NODE":124.5903,"ARG_OF_PERICENTER":195.8168,"MEAN_ANOMALY":164.2704,"EPHEMERIS_TYPE":0,"CLASSIFICATION_TYPE":"U","NORAD_CAT_ID":29522,"ELEMENT_SET_NO":999,"REV_AT_EPOCH":518,"BSTAR":8.1289062e-5,"MEAN_MOTION_DOT":1.14e-6,"MEAN_MOTION_DDOT":0},{"OBJECT_NAME":"LAPAN-TUBSAT","OBJECT_ID":"2007-001A","EPOCH":"2026-04-26T22:36:19.380672","MEAN_MOTION":14.85895366,"ECCENTRICITY":0.00122058,"INCLINATION":98.1349,"RA_OF_ASC_NODE":115.0142,"ARG_OF_PERICENTER":359.5038,"MEAN_ANOMALY":0.6162,"EPHEMERIS_TYPE":0,"CLASSIFICATION_TYPE":"U","NORAD_CAT_ID":29709,"ELEMENT_SET_NO":999,"REV_AT_EPOCH":4354,"BSTAR":8.4770772e-5,"MEAN_MOTION_DOT":6.82e-6,"MEAN_MOTION_DDOT":0},{"OBJECT_NAME":"HAIYANG-1B","OBJECT_ID":"2007-010A","EPOCH":"2026-04-26T21:26:07.243296","MEAN_MOTION":14.31013827,"ECCENTRICITY":0.00134941,"INCLINATION":98.3476,"RA_OF_ASC_NODE":100.735,"ARG_OF_PERICENTER":359.021,"MEAN_ANOMALY":1.0945,"EPHEMERIS_TYPE":0,"CLASSIFICATION_TYPE":"U","NORAD_CAT_ID":31113,"ELEMENT_SET_NO":999,"REV_AT_EPOCH":99329,"BSTAR":5.6360683e-5,"MEAN_MOTION_DOT":1.07e-6,"MEAN_MOTION_DDOT":0},{"OBJECT_NAME":"BEIDOU-2 M1","OBJECT_ID":"2007-011A","EPOCH":"2026-04-25T09:05:43.875456","MEAN_MOTION":1.77349285,"ECCENTRICITY":0.00015987,"INCLINATION":50.9482,"RA_OF_ASC_NODE":221.0336,"ARG_OF_PERICENTER":13.2566,"MEAN_ANOMALY":346.7459,"EPHEMERIS_TYPE":0,"CLASSIFICATION_TYPE":"U","NORAD_CAT_ID":31115,"ELEMENT_SET_NO":999,"REV_AT_EPOCH":7521,"BSTAR":0,"MEAN_MOTION_DOT":-3.8e-7,"MEAN_MOTION_DDOT":0},{"OBJECT_NAME":"CAPE-1","OBJECT_ID":"2007-012P","EPOCH":"2026-04-26T20:52:58.990080","MEAN_MOTION":14.64756385,"ECCENTRICITY":0.00825122,"INCLINATION":98.4432,"RA_OF_ASC_NODE":90.006,"ARG_OF_PERICENTER":230.8673,"MEAN_ANOMALY":128.5174,"EPHEMERIS_TYPE":0,"CLASSIFICATION_TYPE":"U","NORAD_CAT_ID":31130,"ELEMENT_SET_NO":999,"REV_AT_EPOCH":1084,"BSTAR":0.0001929017,"MEAN_MOTION_DOT":1.024e-5,"MEAN_MOTION_DDOT":0},{"OBJECT_NAME":"CBERS 2B","OBJECT_ID":"2007-042A","EPOCH":"2026-04-26T21:02:45.787776","MEAN_MOTION":14.41446968,"ECCENTRICITY":0.00319151,"INCLINATION":98.3893,"RA_OF_ASC_NODE":62.4327,"ARG_OF_PERICENTER":127.7979,"MEAN_ANOMALY":300.8612,"EPHEMERIS_TYPE":0,"CLASSIFICATION_TYPE":"U","NORAD_CAT_ID":32062,"ELEMENT_SET_NO":999,"REV_AT_EPOCH":97729,"BSTAR":8.5789946e-5,"MEAN_MOTION_DOT":2.37e-6,"MEAN_MOTION_DDOT":0},{"OBJECT_NAME":"COSMO-SKYMED 2","OBJECT_ID":"2007-059A","EPOCH":"2026-04-26T22:05:36.089376","MEAN_MOTION":14.82160085,"ECCENTRICITY":0.00014034,"INCLINATION":97.8885,"RA_OF_ASC_NODE":301.2615,"ARG_OF_PERICENTER":92.4201,"MEAN_ANOMALY":267.7173,"EPHEMERIS_TYPE":0,"CLASSIFICATION_TYPE":"U","NORAD_CAT_ID":32376,"ELEMENT_SET_NO":999,"REV_AT_EPOCH":99440,"BSTAR":6.0099025e-5,"MEAN_MOTION_DOT":4.26e-6,"MEAN_MOTION_DDOT":0},{"OBJECT_NAME":"CARTOSAT-2A","OBJECT_ID":"2008-021A","EPOCH":"2026-04-26T21:45:29.630016","MEAN_MOTION":14.79171745,"ECCENTRICITY":0.00103156,"INCLINATION":97.7684,"RA_OF_ASC_NODE":167.356,"ARG_OF_PERICENTER":280.412,"MEAN_ANOMALY":79.5929,"EPHEMERIS_TYPE":0,"CLASSIFICATION_TYPE":"U","NORAD_CAT_ID":32783,"ELEMENT_SET_NO":999,"REV_AT_EPOCH":97122,"BSTAR":0.00011516289,"MEAN_MOTION_DOT":8.05e-6,"MEAN_MOTION_DDOT":0},{"OBJECT_NAME":"CUTE-1.7+APD II (CO-65)","OBJECT_ID":"2008-021C","EPOCH":"2026-04-26T22:20:45.444192","MEAN_MOTION":15.08955965,"ECCENTRICITY":0.00083928,"INCLINATION":97.8255,"RA_OF_ASC_NODE":97.313,"ARG_OF_PERICENTER":190.7351,"MEAN_ANOMALY":169.3699,"EPHEMERIS_TYPE":0,"CLASSIFICATION_TYPE":"U","NORAD_CAT_ID":32785,"ELEMENT_SET_NO":999,"REV_AT_EPOCH":97746,"BSTAR":0.00036242635,"MEAN_MOTION_DOT":5.661e-5,"MEAN_MOTION_DDOT":0},{"OBJECT_NAME":"SEEDS II (CO-66)","OBJECT_ID":"2008-021J","EPOCH":"2026-04-26T22:08:21.797664","MEAN_MOTION":15.30966474,"ECCENTRICITY":0.00049902,"INCLINATION":97.7528,"RA_OF_ASC_NODE":112.4472,"ARG_OF_PERICENTER":113.7428,"MEAN_ANOMALY":246.4336,"EPHEMERIS_TYPE":0,"CLASSIFICATION_TYPE":"U","NORAD_CAT_ID":32791,"ELEMENT_SET_NO":999,"REV_AT_EPOCH":97944,"BSTAR":0.00068576695,"MEAN_MOTION_DOT":0.00020476,"MEAN_MOTION_DDOT":0}]
