CUBESAT XI-V            
1 28895U 05043F   26116.69297965  .00001586  00000+0  25776-3 0  9992
2 28895  98.2925 271.2553 0014225  14.3495 345.8113 14.72492449 94176
CLOUDSAT                
1 29107U 06016A   26116.91883548  .00001048  00000+0  12595-3 0  9991
2 29107  98.3974 151.3600 0006292 129.6735 230.5035 14.86286752 66895
CALIPSO                 
1 29108U 06016B   26116.94960861  .00000977  00000+0  17468-3 0  9993
2 29108  98.4498 130.8654 0001829  90.0416 270.0998 14.69250868 65534
HINODE (SOLAR-B)        
1 29479U 06041A   26116.94891432  .00000744  00000+0  13641-3 0  9990
2 29479  98.0578 133.8536 0018963  90.9758 269.3620 14.68546649 47354
METOP-A                 
1 29499U 06044A   26116.94743299  .00001944  00000+0  23006-3 0  9991
2 29499  98.3280 222.0649 0173549 232.4765 237.4165 14.75731872 17896
SHIJIAN-6 02B (SJ-6 02B)
1 29506U 06046B   26116.95879859  .00001773  00000+0  14270-3 0  9998
2 29506  97.7143 146.3397 0010982 236.4722 123.5454 15.01216672 63053
DMSP 5D-3 F17 (USA 191) 
1 29522U 06050A   26116.97448705  .00000114  00000+0  81289-4 0  9998
2 29522  98.7395 124.5903 0009691 195.8168 164.2704 14.14982847  5186
LAPAN-TUBSAT            
1 29709U 07001A   26116.94189098  .00000682  00000+0  84771-4 0  9995
2 29709  98.1349 115.0142 0012205 359.5038   0.6162 14.85895366 43546
HAIYANG-1B              
1 31113U 07010A   26116.89313939  .00000107  00000+0  56361-4 0  9990
2 31113  98.3476 100.7350 0013494 359.0210   1.0945 14.31013827993296
BEIDOU-2 M1             
1 31115U 07011A   26115.37898004 -.00000038  00000+0  00000+0 0  9994
2 31115  50.9482 221.0336 0001598  13.2566 346.7459  1.77349285 75213
CAPE-1                  
1 31130U 07012P   26116.87012720  .00001024  00000+0  19290-3 0  9991
2 31130  98.4432  90.0060 0082512 230.8673 128.5174 14.64756385 10842
CBERS 2B                
1 32062U 07042A   26116.87691884  .00000237  00000+0  85790-4 0  9997
2 32062  98.3893  62.4327 0031915 127.7979 300.8612 14.41446968977291
COSMO-SKYMED 2          
1 32376U 07059A   26116.92055659  .00000426  00000+0  60099-4 0  9998
2 32376  97.8885 301.2615 0001403  92.4201 267.7173 14.82160085994406
CARTOSAT-2A             
1 32783U 08021A   26116.90659294  .00000805  00000+0  11516-3 0  9993
2 32783  97.7684 167.3560 0010315 280.4120  79.5929 14.79171745971229
CUTE-1.7+APD II (CO-65) 
1 32785U 08021C   26116.93108153  .00005661  00000+0  36243-3 0  9990
2 32785  97.8255  97.3130 0008392 190.7351 169.3699 15.08955965977463
SEEDS II (CO-66)        
1 32791U 08021J   26116.92247451  .00020476  00000+0  68577-3 0  9997
2 32791  97.7528 112.4472 0004990 113.7428 246.4336 15.30966474979447
